1 53802U 22111AF  22283.58334491 -.00005627  00000-0 -35642-4 0  9995
2 53802  53.2143 120.9727 0001273 109.1213 301.5237 15.73238546  1305